*******************************************************************************
 Revised: July 31, 2013                  Sun                                 10

 PHYSICAL PROPERTIES (updated 2018-Aug-15):
  GM, km^3/s^2          = 132712440041.93938  Mass, 10^24 kg        = ~1988500
  Vol. mean radius, km  = 695700              Volume, 10^12 km^3    = 1412000
  Solar radius (IAU)    = 696000 km           Mean density, g/cm^3  = 1.408
  Radius (photosphere)  = 696500 km           Angular diam at 1 AU  = 1919.3"
  Photosphere temp., K  = 6600 (bottom)       Photosphere temp., K  = 4400(top)
  Photospheric depth    = ~500 km             Chromospheric depth   = ~2500 km
  Flatness, f           = 0.00005             Adopted sid. rot. per.= 25.38 d
  Surface gravity       =  274.0 m/s^2        Escape speed, km/s    =  617.7
  Pole (RA,DEC), deg.   = (286.13, 63.87)     Obliquity to ecliptic = 7.25 deg.
  Solar constant (1 AU) = 1367.6 W/m^2        Luminosity, 10^24 J/s = 382.8
  Mass-energy conv rate = 4.260 x 10^9 kg/s   Effective temp, K     = 5772
  Sunspot cycle         = 11.4 yr             Cycle 24 sunspot min. = 2008 A.D.

  Motion relative to nearby stars = apex : R.A.= 271 deg.; DEC.= +30 deg.
                                    speed: 19.4 km/s (0.0112 au/day)
  Motion relative to 2.73K BB/CBR = apex : l= 264.7 +- 0.8; b= 48.2 +- 0.5 deg.
                                    speed: 369 +-11 km/s
*******************************************************************************


*******************************************************************************
Ephemeris / WWW_USER Thu Aug 25 21:09:52 2022 Pasadena, USA      / Horizons
*******************************************************************************
Target body name: Sun (10)                        {source: DE441}
Center body name: Solar System Barycenter (0)     {source: DE441}
Center-site name: BODY CENTER
*******************************************************************************
Start time      : A.D. 2022-Aug-25 00:00:00.0000 TDB
Stop  time      : A.D. 2022-Sep-24 00:00:00.0000 TDB
Step-size       : 1440 minutes
*******************************************************************************
Center geodetic : 0.00000000,0.00000000,0.0000000 {E-lon(deg),Lat(deg),Alt(km)}
Center cylindric: 0.00000000,0.00000000,0.0000000 {E-lon(deg),Dxy(km),Dz(km)}
Center radii    : (undefined)                                                  
Output units    : KM-S
Output type     : GEOMETRIC cartesian states
Output format   : 3 (position, velocity, LT, range, range-rate)
Reference frame : Ecliptic of J2000.0
*******************************************************************************
JDTDB
   X     Y     Z
   VX    VY    VZ
   LT    RG    RR
*******************************************************************************
$$SOE
2459840.500000000 = A.D. 2022-Sep-18 00:00:00.0000 TDB 
 X =-1.359151799149278E+06 Y = 1.564090571595085E+05 Z = 3.037610717172148E+04
 VX=-5.915586417793658E-04 VY=-1.573710349592538E-02 VZ= 1.378939764000520E-04
 LT= 4.564687978396695E+00 RG= 1.368459029046596E+06 RR=-1.208087937341389E-03
2459841.500000000 = A.D. 2022-Sep-19 00:00:00.0000 TDB 
 X =-1.359201996747434E+06 Y = 1.550494066479352E+05 Z = 3.038800354705663E+04
 VX=-5.704222683035879E-04 VY=-1.573628301365063E-02 VZ= 1.374851734923382E-04
 LT= 4.564339038336613E+00 RG= 1.368354419448290E+06 RR=-1.213431501739719E-03
2459842.500000000 = A.D. 2022-Sep-20 00:00:00.0000 TDB 
 X =-1.359250368016492E+06 Y = 1.536898283627722E+05 Z = 3.039986462970024E+04
 VX=-5.492824111660984E-04 VY=-1.573543098893853E-02 VZ= 1.370770673907104E-04
 LT= 4.563988557420982E+00 RG= 1.368249347913111E+06 RR=-1.218780952925467E-03
2459843.500000000 = A.D. 2022-Sep-21 00:00:00.0000 TDB 
 X =-1.359296912638025E+06 Y = 1.523303251904433E+05 Z = 3.041169049426679E+04
 VX=-5.281387520238575E-04 VY=-1.573454362557081E-02 VZ= 1.366700044571250E-04
 LT= 4.563636533949587E+00 RG= 1.368143813931347E+06 RR=-1.224136226913152E-03
2459844.500000000 = A.D. 2022-Sep-22 00:00:00.0000 TDB 
 X =-1.359341630290264E+06 Y = 1.509709003617050E+05 Z = 3.042348124874051E+04
 VX=-5.069915550366496E-04 VY=-1.573361675767559E-02 VZ= 1.362644121900413E-04
 LT= 4.563282966324312E+00 RG= 1.368037817023897E+06 RR=-1.229496657303928E-03
2459845.500000000 = A.D. 2022-Sep-23 00:00:00.0000 TDB 
 X =-1.359384520704291E+06 Y = 1.496115574810816E+05 Z = 3.043523704181560E+04
 VX=-4.858418014696257E-04 VY=-1.573264591136257E-02 VZ= 1.358608064534169E-04
 LT= 4.562927853241057E+00 RG= 1.367931356799799E+06 RR=-1.234860849868321E-03
2459846.500000000 = A.D. 2022-Sep-24 00:00:00.0000 TDB 
 X =-1.359425583731712E+06 Y = 1.482523005498300E+05 Z = 3.044695807075359E+04
 VX=-4.646913221407913E-04 VY=-1.573162639497884E-02 VZ= 1.354597961729896E-04
 LT= 4.562571193916928E+00 RG= 1.367824433024351E+06 RR=-1.240226561902031E-03
